NORAD_CAT_ID,OBJECT_NAME,OBJECT_TYPE,EPOCH,MEAN_MOTION,ECCENTRICITY,INCLINATION,RA_OF_ASC_NODE,ARG_OF_PERICENTER,MEAN_ANOMALY,BSTAR,MEAN_MOTION_DOT,MEAN_MOTION_DDOT,TLE_LINE0,TLE_LINE1,TLE_LINE2,SEMIMAJOR_AXIS,PERIOD,APOGEE,PERIGEE,DECAYED
49428.0,STARLINK-3121,PAYLOAD,2022-06-21 09:39:17,15.08841482,0.0002744,53.216,202.23,34.9281,325.1891,0.00014721,2.055e-05,0.0,0 STARLINK-3121,1 49428U 21104W   22172.40228389  .00002055  00000-0  14721-3 0  9995,2 49428  53.2160 202.2300 0002744  34.9281 325.1891 15.08841482 33735,6917.876,95.437,541.639,537.8430000000002,0.0
49428.0,STARLINK-3121,PAYLOAD,2022-06-21 14:25:26,15.08844902,0.0002731,53.2158,201.3379,34.8042,325.3129,0.00015284,2.145e-05,0.0,0 STARLINK-3121,1 49428U 21104W   22172.60100154  .00002145  00000-0  15284-3 0  9991,2 49428  53.2158 201.3379 0002731  34.8042 325.3129 15.08844902 34836,6917.865,95.437,541.62,537.841,0.0
49428.0,STARLINK-3121,PAYLOAD,2022-06-22 11:05:28,15.08837212,0.0002719,53.2157,197.4719,34.8917,325.2253,4.1416e-06,-2.23e-06,0.0,0 STARLINK-3121,1 49428U 21104W   22173.46212987 -.00000223  00000-0  41416-5 0  9998,2 49428  53.2157 197.4719 0002719  34.8917 325.2253 15.08837212 34962,6917.889,95.438,541.635,537.873,0.0
49428.0,STARLINK-3121,PAYLOAD,2022-06-22 19:02:23,15.08838448,0.0002742,53.2159,195.9852,35.5212,324.5962,1.0094e-05,-1.28e-06,0.0,0 STARLINK-3121,1 49428U 21104W   22173.79332905 -.00000128  00000-0  10094-4 0  9998,2 49428  53.2159 195.9852 0002742  35.5212 324.5962 15.08838448 33945,6917.885,95.438,541.6469999999998,537.8530000000002,0.0
49428.0,STARLINK-3121,PAYLOAD,2022-06-23 07:45:28,15.08842487,0.0002752,53.2159,193.606,36.0255,324.0922,-6.1675e-06,-3.87e-06,0.0,0 STARLINK-3121,1 49428U 21104W   22174.32324647 -.00000387  00000-0 -61675-5 0  9992,2 49428  53.2159 193.6060 0002752  36.0255 324.0922 15.08842487 34024,6917.873000000001,95.437,541.6419999999998,537.8340000000002,0.0
49428.0,STARLINK-3121,PAYLOAD,2022-06-23 18:53:10,15.08842297,0.0002784,53.2159,191.5244,36.8407,323.2776,-4.3842e-06,-3.58e-06,0.0,0 STARLINK-3121,1 49428U 21104W   22174.78692565 -.00000358  00000-0 -43842-5 0  9993,2 49428  53.2159 191.5244 0002784  36.8407 323.2776 15.08842297 35160,6917.873000000001,95.437,541.664,537.812,0.0
49428.0,STARLINK-3121,PAYLOAD,2022-06-24 10:47:01,15.08838599,0.0002873,53.2158,188.5514,37.018,323.101,9.2126e-05,1.178e-05,0.0,0 STARLINK-3121,1 49428U 21104W   22175.44932495  .00001178  00000-0  92126-4 0  9993,2 49428  53.2158 188.5514 0002873  37.0180 323.1010 15.08838599 34197,6917.885,95.438,541.737,537.762,0.0
49428.0,STARLINK-3121,PAYLOAD,2022-06-25 04:16:16,15.08842028,0.0002914,53.2158,185.2804,38.5321,321.5878,7.9215e-05,9.72e-06,0.0,0 STARLINK-3121,1 49428U 21104W   22176.17796310  .00000972  00000-0  79215-4 0  9993,2 49428  53.2158 185.2804 0002914  38.5321 321.5878 15.08842028 35379,6917.874,95.437,541.755,537.7230000000002,0.0
49428.0,STARLINK-3121,PAYLOAD,2022-06-25 10:37:49,15.08830298,0.0002874,53.2152,184.0916,37.6523,322.467,-1.6979e-05,-5.59e-06,0.0,0 STARLINK-3121,1 49428U 21104W   22176.44293367 -.00000559  00000-0 -16979-4 0  9998,2 49428  53.2152 184.0916 0002874  37.6523 322.4670 15.08830298 35414,6917.91,95.438,541.763,537.7869999999998,0.0
49428.0,STARLINK-3121,PAYLOAD,2022-06-25 16:59:22,15.08829238,0.0002898,53.2154,182.9016,37.901,322.2186,-4.5715e-05,-1.016e-05,0.0,0 STARLINK-3121,1 49428U 21104W   22176.70789630 -.00001016  00000-0 -45715-4 0  9999,2 49428  53.2154 182.9016 0002898  37.9010 322.2186 15.08829238 34381,6917.913000000001,95.438,541.783,537.773,0.0
49428.0,STARLINK-3121,PAYLOAD,2022-06-26 08:53:13,15.08832807,0.0002947,53.2157,179.9277,39.6583,320.4624,-2.4796e-05,-6.83e-06,0.0,0 STARLINK-3121,1 49428U 21104W   22177.37029719 -.00000683  00000-0 -24796-4 0  9993,2 49428  53.2157 179.9277 0002947  39.6583 320.4624 15.08832807 34482,6917.901999999999,95.438,541.806,537.729,0.0
49428.0,STARLINK-3121,PAYLOAD,2022-06-26 16:50:09,15.08833092,0.0002946,53.2157,178.4407,39.4275,320.6931,-3.8355e-05,-8.99e-06,0.0,0 STARLINK-3121,1 49428U 21104W   22177.70149851 -.00000899  00000-0 -38355-4 0  9995,2 49428  53.2157 178.4407 0002946  39.4275 320.6931 15.08833092 35601,6917.901999999999,95.438,541.805,537.7280000000002,0.0
49428.0,STARLINK-3121,PAYLOAD,2022-06-27 10:19:24,15.08832878,0.0002994,53.2157,175.1696,40.4378,319.6836,1.2305e-05,-9.3e-07,0.0,0 STARLINK-3121,1 49428U 21104W   22178.43014061 -.00000093  00000-0  12305-4 0  9992,2 49428  53.2157 175.1696 0002994  40.4378 319.6836 15.08832878 34640,6917.901999999999,95.438,541.8380000000002,537.696,0.0
49428.0,STARLINK-3121,PAYLOAD,2022-06-27 16:40:56,15.08828546,0.0003035,53.216,173.9803,41.2646,318.8575,8.6146e-05,1.082e-05,0.0,0 STARLINK-3121,1 49428U 21104W   22178.69510293  .00001082  00000-0  86146-4 0  9990,2 49428  53.2160 173.9803 0003035  41.2646 318.8575 15.08828546 34686,6917.915,95.438,541.88,537.681,0.0
49428.0,STARLINK-3121,PAYLOAD,2022-06-28 03:48:38,15.08830889,0.0003044,53.2161,171.8987,42.413,317.7097,7.8055e-05,9.54e-06,0.0,0 STARLINK-3121,1 49428U 21104W   22179.15878466  .00000954  00000-0  78055-4 0  9998,2 49428  53.2161 171.8987 0003044  42.4130 317.7097 15.08830889 35825,6917.908,95.438,541.879,537.6669999999998,0.0
49428.0,STARLINK-3121,PAYLOAD,2022-06-28 08:34:48,15.08832518,0.0003069,53.2159,171.0066,42.6658,317.4572,7.7766e-05,9.49e-06,0.0,0 STARLINK-3121,1 49428U 21104W   22179.35750483  .00000949  00000-0  77766-4 0  9990,2 49428  53.2159 171.0066 0003069  42.6658 317.4572 15.08832518 34786,6917.903,95.438,541.891,537.645,0.0
49428.0,STARLINK-3121,PAYLOAD,2022-06-28 16:31:44,15.08834157,0.0003082,53.2161,169.5198,43.326,316.7974,8.014199999999999e-05,9.87e-06,0.0,0 STARLINK-3121,1 49428U 21104W   22179.68870518  .00000987  00000-0  80142-4 0  9992,2 49428  53.2161 169.5198 0003082  43.3260 316.7974 15.08834157 34834,6917.898,95.438,541.895,537.631,0.0
49428.0,STARLINK-3121,PAYLOAD,2022-06-29 05:14:49,15.08837175,0.0003134,53.2158,167.1409,44.6519,315.4725,7.5103e-05,9.07e-06,0.0,0 STARLINK-3121,1 49428U 21104W   22180.21862511  .00000907  00000-0  75103-4 0  9990,2 49428  53.2158 167.1409 0003134  44.6519 315.4725 15.08837175 35988,6917.889,95.438,541.922,537.586,0.0
49428.0,STARLINK-3121,PAYLOAD,2022-06-29 11:36:21,15.08838387,0.0003163,53.2158,165.9515,45.1615,314.9634,7.9302e-05,9.74e-06,0.0,0 STARLINK-3121,1 49428U 21104W   22180.48358453  .00000974  00000-0  79302-4 0  9993,2 49428  53.2158 165.9515 0003163  45.1615 314.9634 15.08838387 34952,6917.885,95.438,541.938,537.562,0.0
49428.0,STARLINK-3121,PAYLOAD,2022-06-30 05:05:35,15.0884221,0.0003214,53.2159,162.6806,46.841,313.2851,7.152100000000001e-05,8.5e-06,0.0,0 STARLINK-3121,1 49428U 21104W   22181.21222179  .00000850  00000-0  71521-4 0  9998,2 49428  53.2159 162.6806 0003214  46.8410 313.2851 15.08842210 35064,6917.874,95.437,541.962,537.515,0.0
49428.0,STARLINK-3121,PAYLOAD,2022-06-30 16:13:17,15.08844148,0.000324,53.216,160.5991,47.7099,312.4167,7.7535e-05,9.46e-06,0.0,0 STARLINK-3121,1 49428U 21104W   22181.67589919  .00000946  00000-0  77535-4 0  9993,2 49428  53.2160 160.5991 0003240  47.7099 312.4167 15.08844148 35131,6917.868,95.437,541.974,537.491,0.0
49428.0,STARLINK-3121,PAYLOAD,2022-07-01 08:07:08,15.0884896,0.0003284,53.2159,157.6253,48.7275,311.4,7.607600000000001e-05,9.23e-06,0.0,0 STARLINK-3121,1 49428U 21104W   22182.33829346  .00000923  00000-0  76076-4 0  9992,2 49428  53.2159 157.6253 0003284  48.7275 311.4000 15.08848960 35234,6917.853,95.437,541.99,537.446,0.0
49428.0,STARLINK-3121,PAYLOAD,2022-07-02 07:57:56,15.08835939,0.000332,53.2158,153.1644,51.2435,308.8853,-5.5042e-05,-1.165e-05,0.0,0 STARLINK-3121,1 49428U 21104W   22183.33190466 -.00001165  00000-0 -55042-4 0  9998,2 49428  53.2158 153.1644 0003320  51.2435 308.8853 15.08835939 35380,6917.893,95.438,542.055,537.461,0.0
49428.0,STARLINK-3121,PAYLOAD,2022-07-03 04:37:56,15.08844636,0.0003348,53.2161,149.2989,52.0016,308.1278,-2.2252000000000003e-06,-3.24e-06,0.0,0 STARLINK-3121,1 49428U 21104W   22184.19301707 -.00000324  00000-0 -22252-5 0  9999,2 49428  53.2161 149.2989 0003348  52.0016 308.1278 15.08844636 36587,6917.866,95.437,542.047,537.415,0.0
49428.0,STARLINK-3121,PAYLOAD,2022-07-03 09:24:05,15.08845763,0.0003354,53.216,148.4067,52.0429,308.0866,8.430099999999999e-06,-1.55e-06,0.0,0 STARLINK-3121,1 49428U 21104W   22184.39173557 -.00000155  00000-0  84301-5 0  9995,2 49428  53.2160 148.4067 0003354  52.0429 308.0866 15.08845763 35548,6917.863,95.437,542.048,537.408,0.0
49428.0,STARLINK-3121,PAYLOAD,2022-07-03 22:07:10,15.08841257,0.000332,53.216,146.0278,52.4096,307.7197,0.0001135,1.518e-05,0.0,0 STARLINK-3121,1 49428U 21104W   22184.92165420  .00001518  00000-0  11350-3 0  9999,2 49428  53.2160 146.0278 0003320  52.4096 307.7197 15.08841257 35629,6917.877,95.437,542.038,537.445,0.0
49428.0,STARLINK-3121,PAYLOAD,2022-07-04 04:28:44,15.08830506,0.0003273,53.2161,144.8386,53.5162,306.6131,2.488800000000001e-05,1.07e-06,0.0,0 STARLINK-3121,1 49428U 21104W   22185.18662541  .00000107  00000-0  24888-4 0  9998,2 49428  53.2161 144.8386 0003273  53.5162 306.6131 15.08830506 36733,6917.909000000002,95.438,542.039,537.51,0.0
49428.0,STARLINK-3121,PAYLOAD,2022-07-04 09:14:53,15.088320199999998,0.000328,53.216,143.9464,53.1786,306.9506,3.8966e-05,3.31e-06,0.0,0 STARLINK-3121,1 49428U 21104W   22185.38534565  .00000331  00000-0  38966-4 0  9995,2 49428  53.2160 143.9464 0003280  53.1786 306.9506 15.08832020 35691,6917.905,95.438,542.039,537.501,0.0
49428.0,STARLINK-3121,PAYLOAD,2022-07-04 14:01:03,15.08834729,0.0003284,53.2161,143.0543,53.6863,306.4432,5.1459e-05,5.3e-06,0.0,0 STARLINK-3121,1 49428U 21104W   22185.58406474  .00000530  00000-0  51459-4 0  9997,2 49428  53.2161 143.0543 0003284  53.6863 306.4432 15.08834729 35721,6917.897,95.438,542.033,537.49,0.0
